SHENZHOU-22             
1 66645U 25272A   25340.62885415  .00028802  00000+0  36467-3 0  9996
2 66645  41.4683  53.7961 0009534 342.8614  17.1901 15.58799060263005
SOYUZ-MS 28             
1 66664U 25275A   25340.54293258  .00014832  00000+0  27333-3 0  9999
2 66664  51.6299 173.1600 0003550 211.9909 148.0864 15.49366390  1282
1998-067XS              
1 66906U 98067XS  25340.60563337  .00037648  00000+0  66148-3 0  9999
2 66906  51.6297 172.8292 0004191 176.5725 183.5293 15.50122906   662
1998-067XT              
1 66907U 98067XT  25340.60522367  .00082713  00000+0  14185-2 0  9994
2 66907  51.6295 172.8271 0005191 193.5378 166.5473 15.50454820   666
1998-067XU              
1 66908U 98067XU  25340.41174187  .00083271  00000+0  14263-2 0  9994
2 66908  51.6293 173.7848 0005415 192.2110 167.8749 15.50486403   633
1998-067XV              
1 66909U 98067XV  25340.60507476  .00093198  00000+0  15900-2 0  9995
2 66909  51.6296 172.8258 0005242 193.8867 166.1979 15.50547779   660
1998-067XW              
1 66910U 98067XW  25340.60432265  .00080250  00000+0  13605-2 0  9995
2 66910  51.6294 172.8206 0006159 179.5377 180.5619 15.50789302   669
1998-067XX              
1 66911U 98067XX  25340.60423706  .00092556  00000+0  15610-2 0  9996
2 66911  51.6293 172.8204 0006050 180.1037 179.9952 15.50869311   658
1998-067XY              
1 66912U 98067XY  25340.60537263  .00067549  00000+0  11669-2 0  9995
2 66912  51.6295 172.8274 0005234 193.0919 166.9935 15.50339462   659
