CCSDS_OMM_VERS = 2.0
CREATION_DATE  = 
ORIGINATOR     = 

OBJECT_NAME    = SHENZHOU-22
OBJECT_ID      = 2025-272A
CENTER_NAME    = EARTH
REF_FRAME      = TEME
TIME_SYSTEM    = UTC
MEAN_ELEMENT_THEORY = SGP/SGP4

EPOCH          = 2025-12-06T15:05:32.998560
MEAN_MOTION    = 15.58799060
ECCENTRICITY   = .00095344
INCLINATION    = 41.4683
RA_OF_ASC_NODE = 53.7961
ARG_OF_PERICENTER = 342.8614
MEAN_ANOMALY   = 17.1901

EPHEMERIS_TYPE = 0
CLASSIFICATION_TYPE = U
NORAD_CAT_ID   = 66645
ELEMENT_SET_NO = 999
REV_AT_EPOCH   = 26300
BSTAR          = .36466504E-3
MEAN_MOTION_DOT = .28802E-3
MEAN_MOTION_DDOT = 0

CCSDS_OMM_VERS = 2.0
CREATION_DATE  = 
ORIGINATOR     = 

OBJECT_NAME    = SOYUZ-MS 28
OBJECT_ID      = 2025-275A
CENTER_NAME    = EARTH
REF_FRAME      = TEME
TIME_SYSTEM    = UTC
MEAN_ELEMENT_THEORY = SGP/SGP4

EPOCH          = 2025-12-06T13:01:49.374912
MEAN_MOTION    = 15.49366390
ECCENTRICITY   = .00035502
INCLINATION    = 51.6299
RA_OF_ASC_NODE = 173.1600
ARG_OF_PERICENTER = 211.9909
MEAN_ANOMALY   = 148.0864

EPHEMERIS_TYPE = 0
CLASSIFICATION_TYPE = U
NORAD_CAT_ID   = 66664
ELEMENT_SET_NO = 999
REV_AT_EPOCH   = 128
BSTAR          = .27332684E-3
MEAN_MOTION_DOT = .14832E-3
MEAN_MOTION_DDOT = 0

CCSDS_OMM_VERS = 2.0
CREATION_DATE  = 
ORIGINATOR     = 

OBJECT_NAME    = 1998-067XS
OBJECT_ID      = 1998-067XS
CENTER_NAME    = EARTH
REF_FRAME      = TEME
TIME_SYSTEM    = UTC
MEAN_ELEMENT_THEORY = SGP/SGP4

EPOCH          = 2025-12-06T14:32:06.723168
MEAN_MOTION    = 15.50122906
ECCENTRICITY   = .0004191
INCLINATION    = 51.6297
RA_OF_ASC_NODE = 172.8292
ARG_OF_PERICENTER = 176.5725
MEAN_ANOMALY   = 183.5293

EPHEMERIS_TYPE = 0
CLASSIFICATION_TYPE = U
NORAD_CAT_ID   = 66906
ELEMENT_SET_NO = 999
REV_AT_EPOCH   = 66
BSTAR          = .66148009E-3
MEAN_MOTION_DOT = .37648E-3
MEAN_MOTION_DDOT = 0

CCSDS_OMM_VERS = 2.0
CREATION_DATE  = 
ORIGINATOR     = 

OBJECT_NAME    = 1998-067XT
OBJECT_ID      = 1998-067XT
CENTER_NAME    = EARTH
REF_FRAME      = TEME
TIME_SYSTEM    = UTC
MEAN_ELEMENT_THEORY = SGP/SGP4

EPOCH          = 2025-12-06T14:31:31.325088
MEAN_MOTION    = 15.50454820
ECCENTRICITY   = .00051917
INCLINATION    = 51.6295
RA_OF_ASC_NODE = 172.8271
ARG_OF_PERICENTER = 193.5378
MEAN_ANOMALY   = 166.5473

EPHEMERIS_TYPE = 0
CLASSIFICATION_TYPE = U
NORAD_CAT_ID   = 66907
ELEMENT_SET_NO = 999
REV_AT_EPOCH   = 66
BSTAR          = .14185455E-2
MEAN_MOTION_DOT = .82713E-3
MEAN_MOTION_DDOT = 0

CCSDS_OMM_VERS = 2.0
CREATION_DATE  = 
ORIGINATOR     = 

OBJECT_NAME    = 1998-067XU
OBJECT_ID      = 1998-067XU
CENTER_NAME    = EARTH
REF_FRAME      = TEME
TIME_SYSTEM    = UTC
MEAN_ELEMENT_THEORY = SGP/SGP4

EPOCH          = 2025-12-06T09:52:54.497568
MEAN_MOTION    = 15.50486403
ECCENTRICITY   = .0005415
INCLINATION    = 51.6293
RA_OF_ASC_NODE = 173.7848
ARG_OF_PERICENTER = 192.2110
MEAN_ANOMALY   = 167.8749

EPHEMERIS_TYPE = 0
CLASSIFICATION_TYPE = U
NORAD_CAT_ID   = 66908
ELEMENT_SET_NO = 999
REV_AT_EPOCH   = 63
BSTAR          = .14263123E-2
MEAN_MOTION_DOT = .83271E-3
MEAN_MOTION_DDOT = 0

CCSDS_OMM_VERS = 2.0
CREATION_DATE  = 
ORIGINATOR     = 

OBJECT_NAME    = 1998-067XV
OBJECT_ID      = 1998-067XV
CENTER_NAME    = EARTH
REF_FRAME      = TEME
TIME_SYSTEM    = UTC
MEAN_ELEMENT_THEORY = SGP/SGP4

EPOCH          = 2025-12-06T14:31:18.459264
MEAN_MOTION    = 15.50547779
ECCENTRICITY   = .00052426
INCLINATION    = 51.6296
RA_OF_ASC_NODE = 172.8258
ARG_OF_PERICENTER = 193.8867
MEAN_ANOMALY   = 166.1979

EPHEMERIS_TYPE = 0
CLASSIFICATION_TYPE = U
NORAD_CAT_ID   = 66909
ELEMENT_SET_NO = 999
REV_AT_EPOCH   = 66
BSTAR          = .15899979E-2
MEAN_MOTION_DOT = .93198E-3
MEAN_MOTION_DDOT = 0

CCSDS_OMM_VERS = 2.0
CREATION_DATE  = 
ORIGINATOR     = 

OBJECT_NAME    = 1998-067XW
OBJECT_ID      = 1998-067XW
CENTER_NAME    = EARTH
REF_FRAME      = TEME
TIME_SYSTEM    = UTC
MEAN_ELEMENT_THEORY = SGP/SGP4

EPOCH          = 2025-12-06T14:30:13.476960
MEAN_MOTION    = 15.50789302
ECCENTRICITY   = .00061597
INCLINATION    = 51.6294
RA_OF_ASC_NODE = 172.8206
ARG_OF_PERICENTER = 179.5377
MEAN_ANOMALY   = 180.5619

EPHEMERIS_TYPE = 0
CLASSIFICATION_TYPE = U
NORAD_CAT_ID   = 66910
ELEMENT_SET_NO = 999
REV_AT_EPOCH   = 66
BSTAR          = .13604594E-2
MEAN_MOTION_DOT = .8025E-3
MEAN_MOTION_DDOT = 0

CCSDS_OMM_VERS = 2.0
CREATION_DATE  = 
ORIGINATOR     = 

OBJECT_NAME    = 1998-067XX
OBJECT_ID      = 1998-067XX
CENTER_NAME    = EARTH
REF_FRAME      = TEME
TIME_SYSTEM    = UTC
MEAN_ELEMENT_THEORY = SGP/SGP4

EPOCH          = 2025-12-06T14:30:06.081984
MEAN_MOTION    = 15.50869311
ECCENTRICITY   = .00060509
INCLINATION    = 51.6293
RA_OF_ASC_NODE = 172.8204
ARG_OF_PERICENTER = 180.1037
MEAN_ANOMALY   = 179.9952

EPHEMERIS_TYPE = 0
CLASSIFICATION_TYPE = U
NORAD_CAT_ID   = 66911
ELEMENT_SET_NO = 999
REV_AT_EPOCH   = 65
BSTAR          = .15610395E-2
MEAN_MOTION_DOT = .92556E-3
MEAN_MOTION_DDOT = 0

CCSDS_OMM_VERS = 2.0
CREATION_DATE  = 
ORIGINATOR     = 

OBJECT_NAME    = 1998-067XY
OBJECT_ID      = 1998-067XY
CENTER_NAME    = EARTH
REF_FRAME      = TEME
TIME_SYSTEM    = UTC
MEAN_ELEMENT_THEORY = SGP/SGP4

EPOCH          = 2025-12-06T14:31:44.195232
MEAN_MOTION    = 15.50339462
ECCENTRICITY   = .00052344
INCLINATION    = 51.6295
RA_OF_ASC_NODE = 172.8274
ARG_OF_PERICENTER = 193.0919
MEAN_ANOMALY   = 166.9935

EPHEMERIS_TYPE = 0
CLASSIFICATION_TYPE = U
NORAD_CAT_ID   = 66912
ELEMENT_SET_NO = 999
REV_AT_EPOCH   = 65
BSTAR          = .11669061E-2
MEAN_MOTION_DOT = .67549E-3
MEAN_MOTION_DDOT = 0

